start=new Date('2022-08-13T00:00:00.000Z').valueOf();
sats=[{"PERIAPSIS":"434.246","MEAN_MOTION_DDOT":"0.0000000000000","DECAY_DATE":null,"OBJECT_ID":"2019-029D","APOAPSIS":"437.963","INCLINATION":"53.0014","BSTAR":"0.00240570000000","TIME_SYSTEM":"UTC","OBJECT_TYPE":"PAYLOAD","ARG_OF_PERICENTER":"79.0549","MEAN_ELEMENT_THEORY":"SGP4","OBJECT_NAME":"STARLINK-24","MEAN_ANOMALY":"281.0762","FILE":"3535350","LAUNCH_DATE":"2019-05-24","MEAN_MOTION_DOT":"0.00110296","GP_ID":"210073889","TLE_LINE2":"2 44238  53.0014 206.0361 0002728  79.0549 281.0762 15.43393535176840","ELEMENT_SET_NO":"999","TLE_LINE1":"1 44238U 19029D   22224.38528518  .00110296  00000-0  24057-2 0  9993","REF_FRAME":"TEME","PERIOD":"93.301","CENTER_NAME":"EARTH","SEMIMAJOR_AXIS":"6814.239","SITE":"AFETR","CLASSIFICATION_TYPE":"U","ECCENTRICITY":"0.00027280","COUNTRY_CODE":"US","REV_AT_EPOCH":"17684","RA_OF_ASC_NODE":"206.0361","EPOCH":"2022-08-12T09:14:48.639552","RCS_SIZE":"LARGE","EPHEMERIS_TYPE":"0","NORAD_CAT_ID":"44238","MEAN_MOTION":"15.43393535"},{"REV_AT_EPOCH":"17755","RA_OF_ASC_NODE":"200.8328","COUNTRY_CODE":"US","MEAN_MOTION":"15.45561462","NORAD_CAT_ID":"44252","EPHEMERIS_TYPE":"0","RCS_SIZE":"LARGE","EPOCH":"2022-08-12T08:52:25.460832","ECCENTRICITY":"0.00040520","CLASSIFICATION_TYPE":"U","SITE":"AFETR","PERIOD":"93.170","SEMIMAJOR_AXIS":"6807.866","CENTER_NAME":"EARTH","GP_ID":"210074138","TLE_LINE2":"2 44252  52.9918 200.8328 0004052  84.5605 275.5862 15.45561462177554","LAUNCH_DATE":"2019-05-24","MEAN_MOTION_DOT":"0.00101229","REF_FRAME":"TEME","TLE_LINE1":"1 44252U 19029T   22224.36973913  .00101229  00000-0  20542-2 0  9991","ELEMENT_SET_NO":"999","MEAN_ANOMALY":"275.5862","OBJECT_NAME":"STARLINK-71","FILE":"3535350","TIME_SYSTEM":"UTC","BSTAR":"0.00205420000000","MEAN_ELEMENT_THEORY":"SGP4","ARG_OF_PERICENTER":"84.5605","OBJECT_TYPE":"PAYLOAD","APOAPSIS":"432.489","OBJECT_ID":"2019-029T","DECAY_DATE":null,"INCLINATION":"52.9918","MEAN_MOTION_DDOT":"0.0000000000000","PERIAPSIS":"426.972"},{"OBJECT_TYPE":"PAYLOAD","ARG_OF_PERICENTER":"82.1525","MEAN_ELEMENT_THEORY":"SGP4","BSTAR":"0.00019844000000","TIME_SYSTEM":"UTC","FILE":"3535519","OBJECT_NAME":"STARLINK-1007","MEAN_ANOMALY":"277.9617","PERIAPSIS":"546.289","MEAN_MOTION_DDOT":"0.0000000000000","INCLINATION":"53.0559","DECAY_DATE":null,"OBJECT_ID":"2019-074A","APOAPSIS":"548.160","SITE":"AFETR","CLASSIFICATION_TYPE":"U","ECCENTRICITY":"0.00013510","RCS_SIZE":"LARGE","EPOCH":"2022-08-12T14:47:10.932000","EPHEMERIS_TYPE":"0","NORAD_CAT_ID":"44713","MEAN_MOTION":"15.06396477","COUNTRY_CODE":"US","REV_AT_EPOCH":"15204","RA_OF_ASC_NODE":"285.3159","ELEMENT_SET_NO":"999","TLE_LINE1":"1 44713U 19074A   22224.61609875  .00002675  00000-0  19844-3 0  9993","REF_FRAME":"TEME","MEAN_MOTION_DOT":"0.00002675","LAUNCH_DATE":"2019-11-11","GP_ID":"210104385","TLE_LINE2":"2 44713  53.0559 285.3159 0001351  82.1525 277.9617 15.06396477152043","CENTER_NAME":"EARTH","SEMIMAJOR_AXIS":"6925.359","PERIOD":"95.592"},{"MEAN_MOTION_DDOT":"0.0000000000000","PERIAPSIS":"546.286","INCLINATION":"53.0539","APOAPSIS":"548.237","OBJECT_ID":"2019-074B","DECAY_DATE":null,"MEAN_ELEMENT_THEORY":"SGP4","ARG_OF_PERICENTER":"74.5263","OBJECT_TYPE":"PAYLOAD","TIME_SYSTEM":"UTC","BSTAR":"0.00024451000000","FILE":"3535519","MEAN_ANOMALY":"285.5882","OBJECT_NAME":"STARLINK-1008","REF_FRAME":"TEME","TLE_LINE1":"1 44714U 19074B   22224.59495162  .00003361  00000-0  24451-3 0  9996","ELEMENT_SET_NO":"999","TLE_LINE2":"2 44714  53.0539 285.4229 0001408  74.5263 285.5882 15.06384387152044","GP_ID":"210102634","MEAN_MOTION_DOT":"0.00003361","LAUNCH_DATE":"2019-11-11","SEMIMAJOR_AXIS":"6925.396","CENTER_NAME":"EARTH","PERIOD":"95.593","ECCENTRICITY":"0.00014080","SITE":"AFETR","CLASSIFICATION_TYPE":"U","MEAN_MOTION":"15.06384387","NORAD_CAT_ID":"44714","RCS_SIZE":"LARGE","EPHEMERIS_TYPE":"0","EPOCH":"2022-08-12T14:16:43.819968","REV_AT_EPOCH":"15204","RA_OF_ASC_NODE":"285.4229","COUNTRY_CODE":"US"},{"APOAPSIS":"548.228","DECAY_DATE":null,"OBJECT_ID":"2019-074C","INCLINATION":"53.0534","MEAN_MOTION_DDOT":"0.0000000000000","PERIAPSIS":"546.213","MEAN_ANOMALY":"273.3032","OBJECT_NAME":"STARLINK-1009","FILE":"3535519","BSTAR":"0.00016397000000","TIME_SYSTEM":"UTC","OBJECT_TYPE":"PAYLOAD","ARG_OF_PERICENTER":"86.8123","MEAN_ELEMENT_THEORY":"SGP4","PERIOD":"95.592","SEMIMAJOR_AXIS":"6925.355","CENTER_NAME":"EARTH","MEAN_MOTION_DOT":"0.00002162","LAUNCH_DATE":"2019-11-11","GP_ID":"210102884","TLE_LINE2":"2 44715  53.0534 285.4798 0001455  86.8123 273.3032 15.06397753152036","REF_FRAME":"TEME","ELEMENT_SET_NO":"999","TLE_LINE1":"1 44715U 19074C   22224.58387392  .00002162  00000-0  16397-3 0  9999","COUNTRY_CODE":"US","REV_AT_EPOCH":"15203","RA_OF_ASC_NODE":"285.4798","NORAD_CAT_ID":"44715","MEAN_MOTION":"15.06397753","EPHEMERIS_TYPE":"0","RCS_SIZE":"LARGE","EPOCH":"2022-08-12T14:00:46.706688","ECCENTRICITY":"0.00014550","CLASSIFICATION_TYPE":"U","SITE":"AFETR"},{"TIME_SYSTEM":"UTC","BSTAR":"0.00020940000000","MEAN_ELEMENT_THEORY":"SGP4","ARG_OF_PERICENTER":"88.6904","OBJECT_TYPE":"PAYLOAD","MEAN_ANOMALY":"271.4236","OBJECT_NAME":"STARLINK-1010","FILE":"3535350","MEAN_MOTION_DDOT":"0.0000000000000","PERIAPSIS":"546.361","APOAPSIS":"548.177","OBJECT_ID":"2019-074D","DECAY_DATE":null,"INCLINATION":"53.0536","ECCENTRICITY":"0.00013110","CLASSIFICATION_TYPE":"U","SITE":"AFETR","REV_AT_EPOCH":"15200","RA_OF_ASC_NODE":"285.9932","COUNTRY_CODE":"US","MEAN_MOTION":"15.06381802","NORAD_CAT_ID":"44716","EPHEMERIS_TYPE":"0","RCS_SIZE":"LARGE","EPOCH":"2022-08-12T11:16:15.854880","TLE_LINE2":"2 44716  53.0536 285.9932 0001311  88.6904 271.4236 15.06381802152002","GP_ID":"210073677","LAUNCH_DATE":"2019-11-11","MEAN_MOTION_DOT":"0.00002837","REF_FRAME":"TEME","TLE_LINE1":"1 44716U 19074D   22224.46962795  .00002837  00000-0  20940-3 0  9991","ELEMENT_SET_NO":"999","PERIOD":"95.593","SEMIMAJOR_AXIS":"6925.404","CENTER_NAME":"EARTH"},{"TLE_LINE2":"2 44717  53.0559 305.3851 0001281  71.7165 288.3963 15.06394026151761","GP_ID":"210103885","MEAN_MOTION_DOT":"0.00003396","LAUNCH_DATE":"2019-11-11","TLE_LINE1":"1 44717U 19074E   22224.60046215  .00003396  00000-0  24683-3 0  9997","ELEMENT_SET_NO":"999","REF_FRAME":"TEME","PERIOD":"95.593","CENTER_NAME":"EARTH","SEMIMAJOR_AXIS":"6925.367","SITE":"AFETR","CLASSIFICATION_TYPE":"U","ECCENTRICITY":"0.00012810","REV_AT_EPOCH":"15176","RA_OF_ASC_NODE":"305.3851","COUNTRY_CODE":"US","EPOCH":"2022-08-12T14:24:39.929760","RCS_SIZE":"LARGE","EPHEMERIS_TYPE":"0","MEAN_MOTION":"15.06394026","NORAD_CAT_ID":"44717","PERIAPSIS":"546.345","MEAN_MOTION_DDOT":"0.0000000000000","OBJECT_ID":"2019-074E","DECAY_DATE":null,"APOAPSIS":"548.119","INCLINATION":"53.0559","TIME_SYSTEM":"UTC","BSTAR":"0.00024683000000","ARG_OF_PERICENTER":"71.7165","MEAN_ELEMENT_THEORY":"SGP4","OBJECT_TYPE":"PAYLOAD","OBJECT_NAME":"STARLINK-1011","MEAN_ANOMALY":"288.3963","FILE":"3535519"},{"MEAN_ANOMALY":"276.6915","OBJECT_NAME":"STARLINK-1012","FILE":"3535519","BSTAR":"0.00002630800000","TIME_SYSTEM":"UTC","OBJECT_TYPE":"PAYLOAD","MEAN_ELEMENT_THEORY":"SGP4","ARG_OF_PERICENTER":"83.4205","APOAPSIS":"548.094","DECAY_DATE":null,"OBJECT_ID":"2019-074F","INCLINATION":"53.0542","MEAN_MOTION_DDOT":"0.0000000000000","PERIAPSIS":"546.504","COUNTRY_CODE":"US","REV_AT_EPOCH":"15203","RA_OF_ASC_NODE":"285.5282","NORAD_CAT_ID":"44718","MEAN_MOTION":"15.06372257","RCS_SIZE":"LARGE","EPOCH":"2022-08-12T13:44:53.737152","EPHEMERIS_TYPE":"0","ECCENTRICITY":"0.00011480","CLASSIFICATION_TYPE":"U","SITE":"AFETR","PERIOD":"95.594","SEMIMAJOR_AXIS":"6925.434","CENTER_NAME":"EARTH","MEAN_MOTION_DOT":"0.00000110","LAUNCH_DATE":"2019-11-11","TLE_LINE2":"2 44718  53.0542 285.5282 0001148  83.4205 276.6915 15.06372257152038","GP_ID":"210103135","REF_FRAME":"TEME","ELEMENT_SET_NO":"999","TLE_LINE1":"1 44718U 19074F   22224.57284418  .00000110  00000-0  26308-4 0  9991"},{"TIME_SYSTEM":"UTC","BSTAR":"0.00036512000000","ARG_OF_PERICENTER":"73.4972","MEAN_ELEMENT_THEORY":"SGP4","OBJECT_TYPE":"PAYLOAD","MEAN_ANOMALY":"286.6163","OBJECT_NAME":"STARLINK-1013","FILE":"3535519","MEAN_MOTION_DDOT":"0.0000000000000","PERIAPSIS":"546.330","APOAPSIS":"548.179","OBJECT_ID":"2019-074G","DECAY_DATE":null,"INCLINATION":"53.0539","ECCENTRICITY":"0.00013350","SITE":"AFETR","CLASSIFICATION_TYPE":"U","RA_OF_ASC_NODE":"285.4929","REV_AT_EPOCH":"15316","COUNTRY_CODE":"US","MEAN_MOTION":"15.06386543","NORAD_CAT_ID":"44719","EPOCH":"2022-08-12T13:55:31.037376","RCS_SIZE":"LARGE","EPHEMERIS_TYPE":"0","TLE_LINE2":"2 44719  53.0539 285.4929 0001335  73.4972 286.6163 15.06386543153164","GP_ID":"210103384","MEAN_MOTION_DOT":"0.00005159","LAUNCH_DATE":"2019-11-11","REF_FRAME":"TEME","TLE_LINE1":"1 44719U 19074G   22224.58022034  .00005159  00000-0  36512-3 0  9992","ELEMENT_SET_NO":"999","PERIOD":"95.593","SEMIMAJOR_AXIS":"6925.390","CENTER_NAME":"EARTH"},{"NORAD_CAT_ID":"44720","MEAN_MOTION":"15.06396489","RCS_SIZE":"LARGE","EPOCH":"2022-08-12T11:09:33.579936","EPHEMERIS_TYPE":"0","COUNTRY_CODE":"US","REV_AT_EPOCH":"15202","RA_OF_ASC_NODE":"285.9879","ECCENTRICITY":"0.00013730","CLASSIFICATION_TYPE":"U","SITE":"AFETR","SEMIMAJOR_AXIS":"6925.359","CENTER_NAME":"EARTH","PERIOD":"95.592","REF_FRAME":"TEME","ELEMENT_SET_NO":"999","TLE_LINE1":"1 44720U 19074H   22224.46497199  .00001430  00000-0  11487-3 0  9991","LAUNCH_DATE":"2019-11-11","MEAN_MOTION_DOT":"0.00001430","GP_ID":"210074176","TLE_LINE2":"2 44720  53.0553 285.9879 0001373  69.7946 290.3190 15.06396489152028","FILE":"3535350","MEAN_ANOMALY":"290.3190","OBJECT_NAME":"STARLINK-1014","OBJECT_TYPE":"PAYLOAD","MEAN_ELEMENT_THEORY":"SGP4","ARG_OF_PERICENTER":"69.7946","BSTAR":"0.00011487000000","TIME_SYSTEM":"UTC","INCLINATION":"53.0553","APOAPSIS":"548.175","DECAY_DATE":null,"OBJECT_ID":"2019-074H","MEAN_MOTION_DDOT":"0.0000000000000","PERIAPSIS":"546.273"}];
